GSAT0233 (GALILEO 33)   
1 67160U 25302A   26138.89929920  .00000019  00000+0  00000+0 0  9998
2 67160  54.3182 102.9642 0001581 248.0002 293.8232  1.70474069  2627
GSAT0234 (GALILEO 34)   
1 67162U 25302C   26139.78289157  .00000018  00000+0  00000+0 0  9999
2 67162  54.3200 102.9383 0003642 302.0059 242.2053  1.70474042  2692
